NORAD_CAT_ID,OBJECT_NAME,OBJECT_TYPE,EPOCH,MEAN_MOTION,ECCENTRICITY,INCLINATION,RA_OF_ASC_NODE,ARG_OF_PERICENTER,MEAN_ANOMALY,BSTAR,MEAN_MOTION_DOT,MEAN_MOTION_DDOT,TLE_LINE0,TLE_LINE1,TLE_LINE2,SEMIMAJOR_AXIS,PERIOD,APOGEE,PERIGEE,DECAYED
47762,STARLINK-2180,PAYLOAD,2021-05-09 04:00:01,15.06374443,0.0001065,53.0533,232.3433,93.6245,216.2746,0.0029854,0.00044436,0.0,0 STARLINK-2180,1 47762U 21017AS  21129.16668981  .00044436  00000-0  29854-2 0  9998,2 47762  53.0533 232.3433 0001065  93.6245 216.2746 15.06374443 10789,6925.427,95.594,548.029,546.554,0.0
47762,STARLINK-2180,PAYLOAD,2021-05-09 06:00:02,15.06386825,0.0001097,53.0535,231.9692,94.6719,307.3899,0.0020349,0.00030148,0.0,0 STARLINK-2180,1 47762U 21017AS  21129.25002315  .00030148  00000-0  20349-2 0  9996,2 47762  53.0535 231.9692 0001097  94.6719 307.3899 15.06386825  1794,6925.389,95.593,548.014,546.494,0.0
47762,STARLINK-2180,PAYLOAD,2021-05-09 14:00:01,15.06401613,0.0001111,53.0534,230.4748,82.8715,327.8064,-0.00079486,-0.00012101,0.0,0 STARLINK-2180,1 47762U 21017AS  21129.58334491 -.00012101  00000-0 -79486-3 0  9993,2 47762  53.0534 230.4748 0001111  82.8715 327.8064 15.06401613  1751,6925.344,95.592,547.9780000000002,546.439,0.0
47762,STARLINK-2180,PAYLOAD,2021-05-09 20:00:01,15.06407632,0.0001021,53.053,229.3523,80.4739,246.709,-0.00089209,-0.00013547,0.0,0 STARLINK-2180,1 47762U 21017AS  21129.83334491 -.00013547  00000-0 -89209-3 0  9990,2 47762  53.0530 229.3523 0001021  80.4739 246.7090 15.06407632 10884,6925.325,95.592,547.8969999999998,546.4830000000002,0.0
47762,STARLINK-2180,PAYLOAD,2021-05-10 14:00:01,15.0640164,0.0001051,53.0531,225.9859,83.7777,352.9456,-0.00041632,-6.477e-05,0.0,0 STARLINK-2180,1 47762U 21017AS  21130.58334491 -.00006477  00000-0 -41632-3 0  9996,2 47762  53.0531 225.9859 0001051  83.7777 352.9456 15.06401640  1755,6925.344,95.592,547.936,546.481,0.0
47762,STARLINK-2180,PAYLOAD,2021-05-10 20:00:01,15.06413631,9.67e-05,53.0526,224.8632,81.4512,271.778,-0.0013604,-0.00020494,0.0,0 STARLINK-2180,1 47762U 21017AS  21130.83334491 -.00020494  00000-0 -13604-2 0  9996,2 47762  53.0526 224.8632 0000967  81.4512 271.7780 15.06413631 11036,6925.307,95.591,547.841,546.502,0.0
47762,STARLINK-2180,PAYLOAD,2021-05-10 22:00:00,15.06419168,9.76e-05,53.0528,224.4885,86.4717,358.9289,-0.0023217,-0.00034712,0.0,0 STARLINK-2180,1 47762U 21017AS  21130.91667824 -.00034712  00000-0 -23217-2 0  9993,2 47762  53.0528 224.4885 0000976  86.4717 358.9289 15.06419168  1757,6925.29,95.591,547.831,546.479,0.0
47762,STARLINK-2180,PAYLOAD,2021-05-11 06:00:00,15.06402053,0.0001016,53.0529,222.9914,96.8273,357.2612,0.0011066,0.00016241,0.0,0 STARLINK-2180,1 47762U 21017AS  21131.25001157  .00016241  00000-0  11066-2 0  9996,2 47762  53.0529 222.9914 0001016  96.8273 357.2612 15.06402053  1759,6925.342,95.592,547.911,546.504,0.0
47762,STARLINK-2180,PAYLOAD,2021-05-11 12:00:00,15.06414199,0.0001005,53.0526,221.8707,85.1501,285.4551,-0.0014949,-0.00022486,0.0,0 STARLINK-2180,1 47762U 21017AS  21131.50001157 -.00022486  00000-0 -14949-2 0  9997,2 47762  53.0526 221.8707 0001005  85.1501 285.4551 15.06414199 11138,6925.305,95.591,547.866,546.474,0.0
47762,STARLINK-2180,PAYLOAD,2021-05-11 22:00:00,15.06415406,0.0001026,53.0524,219.9995,85.4742,25.9902,-0.0042308,-0.00062771,0.0,0 STARLINK-2180,1 47762U 21017AS  21131.91667824 -.00062771  00000-0 -42308-2 0  9992,2 47762  53.0524 219.9995 0001026  85.4742  25.9902 15.06415406  1808,6925.301,95.591,547.877,546.456,0.0
47762,STARLINK-2180,PAYLOAD,2021-05-12 14:00:01,15.06375272,0.0001113,53.0524,217.0079,80.138,48.6621,0.00073352,0.00010654,0.0,0 STARLINK-2180,1 47762U 21017AS  21132.58334491  .00010654  00000-0  73352-3 0  9992,2 47762  53.0524 217.0079 0001113  80.1380  48.6621 15.06375272 11297,6925.424,95.594,548.06,546.519,0.0
47762,STARLINK-2180,PAYLOAD,2021-05-12 16:00:00,15.06360998,0.0001083,53.0524,216.634,77.0405,143.928,0.0030736,0.00045749,0.0,0 STARLINK-2180,1 47762U 21017AS  21132.66667824  .00045749  00000-0  30736-2 0  9991,2 47762  53.0524 216.6340 0001083  77.0405 143.9280 15.06360998  1818,6925.468000000003,95.595,548.0830000000002,546.5830000000002,0.0
47762,STARLINK-2180,PAYLOAD,2021-05-12 22:00:01,15.06400157,0.0001029,53.0523,215.5102,83.4731,54.0443,-0.0019738,-0.00029559,0.0,0 STARLINK-2180,1 47762U 21017AS  21132.91668981 -.00029559  00000-0 -19738-2 0  9996,2 47762  53.0523 215.5102 0001029  83.4731  54.0443 15.06400157  1752,6925.348000000001,95.592,547.9259999999998,546.5,0.0
47762,STARLINK-2180,PAYLOAD,2021-05-13 12:00:00,15.06399845,0.0001113,53.0522,212.8926,78.5166,344.1148,-0.00099919,-0.00015133,0.0,0 STARLINK-2180,1 47762U 21017AS  21133.50001157 -.00015133  00000-0 -99919-3 0  9991,2 47762  53.0522 212.8926 0001113  78.5166 344.1148 15.06399845  1796,6925.349,95.592,547.985,546.443,0.0
47762,STARLINK-2180,PAYLOAD,2021-05-13 14:54:29,15.06398297,0.000101,53.0539,212.3462,84.9464,275.1641,-2.7563e-05,-6.92e-06,0.0,0 STARLINK-2180,1 47762U 21017AS  21133.62117974 -.00000692  00000-0 -27563-4 0  9990,2 47762  53.0539 212.3462 0001010  84.9464 275.1641 15.06398297 11457,6925.354,95.592,547.918,546.519,0.0
47762,STARLINK-2180,PAYLOAD,2021-05-14 11:36:30,15.06394163,0.0001022,53.0538,208.4745,83.509,276.6015,8.027e-05,9.14e-06,0.0,0 STARLINK-2180,1 47762U 21017AS  21134.48368733  .00000914  00000-0  80270-4 0  9995,2 47762  53.0538 208.4745 0001022  83.5090 276.6015 15.06394163 12235,6925.366,95.593,547.939,546.524,0.0
47762,STARLINK-2180,PAYLOAD,2021-05-15 14:40:42,15.06386792,0.0001043,53.0537,203.4112,83.3392,276.7716,-4.1357e-05,-8.97e-06,0.0,0 STARLINK-2180,1 47762U 21017AS  21135.61159803 -.00000897  00000-0 -41357-4 0  9992,2 47762  53.0537 203.4112 0001043  83.3392 276.7716 15.06386792 12400,6925.389,95.593,547.976,546.5319999999998,0.0
47762,STARLINK-2180,PAYLOAD,2021-05-16 11:22:43,15.06387915,0.0001053,53.0537,199.5393,85.0681,275.0428,-3.7624e-05,-8.41e-06,0.0,0 STARLINK-2180,1 47762U 21017AS  21136.47411112 -.00000841  00000-0 -37624-4 0  9992,2 47762  53.0537 199.5393 0001053  85.0681 275.0428 15.06387915 12531,6925.386,95.593,547.98,546.521,0.0
47762,STARLINK-2180,PAYLOAD,2021-05-16 14:33:47,15.06388664,0.0001028,53.0533,198.9433,79.9534,280.1571,-3.3286999999999995e-05,-7.77e-06,0.0,0 STARLINK-2180,1 47762U 21017AS  21136.60680512 -.00000777  00000-0 -33287-4 0  9998,2 47762  53.0533 198.9433 0001028  79.9534 280.1571 15.06388664 12556,6925.3830000000025,95.593,547.96,546.536,0.0
47762,STARLINK-2180,PAYLOAD,2021-05-17 09:40:16,15.06386573,0.0001023,53.0535,195.36900000000003,80.9188,279.1917,6.401e-05,6.72e-06,0.0,0 STARLINK-2180,1 47762U 21017AS  21137.40297087  .00000672  00000-0  64010-4 0  9998,2 47762  53.0535 195.3690 0001023  80.9188 279.1917 15.06386573 12027,6925.39,95.593,547.9630000000002,546.5459999999998,0.0
47762,STARLINK-2180,PAYLOAD,2021-05-18 11:08:54,15.06390677,9.84e-05,53.0543,190.6036,78.741,281.3689,4.6614e-05,4.13e-06,0.0,0 STARLINK-2180,1 47762U 21017AS  21138.46452446  .00000413  00000-0  46614-4 0  9990,2 47762  53.0543 190.6036 0000984  78.7410 281.3689 15.06390677 12184,6925.377,95.593,547.924,546.561,0.0
47762,STARLINK-2180,PAYLOAD,2021-05-18 12:44:27,15.06391172,0.0001013,53.0546,190.306,78.6732,281.4371,5.033800000000001e-05,4.68e-06,0.0,0 STARLINK-2180,1 47762U 21017AS  21138.53087131  .00000468  00000-0  50338-4 0  9991,2 47762  53.0546 190.3060 0001013  78.6732 281.4371 15.06391172 12844,6925.376,95.593,547.942,546.539,0.0
47762,STARLINK-2180,PAYLOAD,2021-05-19 12:37:32,15.06396267,9.96e-05,53.0553,185.8389,75.7125,284.3974,5.1255e-05,4.82e-06,0.0,0 STARLINK-2180,1 47762U 21017AS  21139.52607309  .00000482  00000-0  51255-4 0  9991,2 47762  53.0553 185.8389 0000996  75.7125 284.3974 15.06396267 12995,6925.36,95.592,547.915,546.535,0.0
47762,STARLINK-2180,PAYLOAD,2021-05-19 14:13:05,15.0639666,9.88e-05,53.0552,185.5409,75.1772,284.9326,5.2969e-05,5.08e-06,0.0,0 STARLINK-2180,1 47762U 21017AS  21139.59241962  .00000508  00000-0  52969-4 0  9999,2 47762  53.0552 185.5409 0000988  75.1772 284.9326 15.06396660 12351,6925.359,95.592,547.908,546.54,0.0
47762,STARLINK-2180,PAYLOAD,2021-05-19 20:35:14,15.06396859,9.92e-05,53.0552,184.3495,74.7871,285.3227,5.5269e-05,5.42e-06,0.0,0 STARLINK-2180,1 47762U 21017AS  21139.85780675  .00000542  00000-0  55269-4 0  9991,2 47762  53.0552 184.3495 0000992  74.7871 285.3227 15.06396859 13045,6925.358,95.592,547.91,546.536,0.0
47762,STARLINK-2180,PAYLOAD,2021-05-20 12:30:37,15.06399758,9.88e-05,53.0552,181.3714,71.2312,288.8784,5.2342e-05,4.98e-06,0.0,0 STARLINK-2180,1 47762U 21017AS  21140.52127311  .00000498  00000-0  52342-4 0  9998,2 47762  53.0552 181.3714 0000988  71.2312 288.8784 15.06399758 13141,6925.349,95.592,547.899,546.53,0.0
47762,STARLINK-2180,PAYLOAD,2021-05-20 14:06:10,15.06399678,9.86e-05,53.0552,181.0735,71.0597,289.0499,4.9629e-05,4.58e-06,0.0,0 STARLINK-2180,1 47762U 21017AS  21140.58761997  .00000458  00000-0  49629-4 0  9998,2 47762  53.0552 181.0735 0000986  71.0597 289.0499 15.06399678 13150,6925.35,95.592,547.8969999999998,546.5319999999998,0.0
47762,STARLINK-2180,PAYLOAD,2021-05-21 09:12:38,15.06403976,9.76e-05,53.0551,177.4994,69.685,290.4243,5.8405e-05,5.89e-06,0.0,0 STARLINK-2180,1 47762U 21017AS  21141.38377731  .00000589  00000-0  58405-4 0  9993,2 47762  53.0551 177.4994 0000976  69.6850 290.4243 15.06403976 13272,6925.3359999999975,95.592,547.877,546.525,0.0
47762,STARLINK-2180,PAYLOAD,2021-05-21 18:45:52,15.06404356,9.85e-05,53.0551,175.7123,68.6164,291.493,4.6555e-05,4.12e-06,0.0,0 STARLINK-2180,1 47762U 21017AS  21141.78185633  .00000412  00000-0  46555-4 0  9993,2 47762  53.0551 175.7123 0000985  68.6164 291.4930 15.06404356 12685,6925.335,95.592,547.882,546.518,0.0
